{"type": "FeatureCollection", "features": [ {"type": "Feature", "properties": {"norad_id": 28659, "name": "DIRECTV 8", "group": "intelsat", "lat": 0.049847766414715076, "lon": 84.72878227493165, "alt_km": 35798.25656358505, "timestamp": "2025-12-21T07:34:34.207714+00:00", "meta": {"OBJECT_NAME": "DIRECTV 8", "OBJECT_ID": "2005-019A", "EPOCH": "2025-12-20T21:13:28.589088", "MEAN_MOTION": 1.00270149, "ECCENTRICITY": 0.00028918, "INCLINATION": 0.0248, "RA_OF_ASC_NODE": 14.0351, "ARG_OF_PERICENTER": 267.3604, "MEAN_ANOMALY": 7.6363, "EPHEMERIS_TYPE": 0, "CLASSIFICATION_TYPE": "U", "NORAD_CAT_ID": 28659, "ELEMENT_SET_NO": 999, "REV_AT_EPOCH": 7528, "BSTAR": 0, "MEAN_MOTION_DOT": 0, "MEAN_MOTION_DDOT": 0}, "tle": {"line1": "1 28659U 05019A   25354.88435867  .00000000  00000+0  00000+0 0  9991", "line2": "2 28659   0.0248  14.0351 0002891 267.3604   7.6363  1.00270149 75289"}}, "geometry": {"type": "Point", "coordinates": [84.72878227493165, 0.049847766414715076]}}, {"type": "Feature", "properties": {"norad_id": 28702, "name": "GALAXY 28 (G-28)", "group": "intelsat", "lat": 1.60942202220691, "lon": 115.0434155156553, "alt_km": 35797.86725649415, "timestamp": "2025-12-21T07:34:34.207724+00:00", "meta": {"OBJECT_NAME": "GALAXY 28 (G-28)", "OBJECT_ID": "2005-022A", "EPOCH": "2025-12-20T00:49:30.482112", "MEAN_MOTION": 1.00271047, "ECCENTRICITY": 0.00029384, "INCLINATION": 2.8382, "RA_OF_ASC_NODE": 81.1982, "ARG_OF_PERICENTER": 194.0723, "MEAN_ANOMALY": 97.2981, "EPHEMERIS_TYPE": 0, "CLASSIFICATION_TYPE": "U", "NORAD_CAT_ID": 28702, "ELEMENT_SET_NO": 999, "REV_AT_EPOCH": 5017, "BSTAR": 0, "MEAN_MOTION_DOT": -1.65e-06, "MEAN_MOTION_DDOT": 0}, "tle": {"line1": "1 28702U 05022A   25354.03438058 -.00000165  00000+0  00000+0 0  9999", "line2": "2 28702   2.8382  81.1982 0002938 194.0723  97.2981  1.00271047 50172"}}, "geometry": {"type": "Point", "coordinates": [115.0434155156553, 1.60942202220691]}}, {"type": "Feature", "properties": {"norad_id": 29236, "name": "GALAXY 16 (G-16)", "group": "intelsat", "lat": 0.0030917641502565055, "lon": 104.75760568571225, "alt_km": 35796.45169402767, "timestamp": "2025-12-21T07:34:34.207735+00:00", "meta": {"OBJECT_NAME": "GALAXY 16 (G-16)", "OBJECT_ID": "2006-023A", "EPOCH": "2025-12-20T21:19:13.039104", "MEAN_MOTION": 1.0027104, "ECCENTRICITY": 0.00024654, "INCLINATION": 0.0071, "RA_OF_ASC_NODE": 264.2554, "ARG_OF_PERICENTER": 6.7479, "MEAN_ANOMALY": 39.5114, "EPHEMERIS_TYPE": 0, "CLASSIFICATION_TYPE": "U", "NORAD_CAT_ID": 29236, "ELEMENT_SET_NO": 999, "REV_AT_EPOCH": 7118, "BSTAR": 0, "MEAN_MOTION_DOT": -1.04e-06, "MEAN_MOTION_DDOT": 0}, "tle": {"line1": "1 29236U 06023A   25354.88834536 -.00000104  00000+0  00000+0 0  9991", "line2": "2 29236   0.0071 264.2554 0002465   6.7479  39.5114  1.00271040 71185"}}, "geometry": {"type": "Point", "coordinates": [104.75760568571225, 0.0030917641502565055]}}, {"type": "Feature", "properties": {"norad_id": 29494, "name": "DIRECTV 9S", "group": "intelsat", "lat": 0.6789945059067506, "lon": 102.54697892002058, "alt_km": 35797.95417047227, "timestamp": "2025-12-21T07:34:34.207746+00:00", "meta": {"OBJECT_NAME": "DIRECTV 9S", "OBJECT_ID": "2006-043A", "EPOCH": "2025-12-20T21:18:35.599392", "MEAN_MOTION": 1.00271576, "ECCENTRICITY": 0.00028252, "INCLINATION": 1.9599, "RA_OF_ASC_NODE": 83.1277, "ARG_OF_PERICENTER": 192.7992, "MEAN_ANOMALY": 32.2256, "EPHEMERIS_TYPE": 0, "CLASSIFICATION_TYPE": "U", "NORAD_CAT_ID": 29494, "ELEMENT_SET_NO": 999, "REV_AT_EPOCH": 4959, "BSTAR": 0, "MEAN_MOTION_DOT": -9.2e-07, "MEAN_MOTION_DDOT": 0}, "tle": {"line1": "1 29494U 06043A   25354.88791203 -.00000092  00000+0  00000+0 0  9998", "line2": "2 29494   1.9599  83.1277 0002825 192.7992  32.2256  1.00271576 49593"}}, "geometry": {"type": "Point", "coordinates": [102.54697892002058, 0.6789945059067506]}}, {"type": "Feature", "properties": {"norad_id": 31307, "name": "GALAXY 17 (G-17)", "group": "intelsat", "lat": 1.5255825300093804, "lon": 118.72706991789433, "alt_km": 35801.84217241203, "timestamp": "2025-12-21T07:34:34.207756+00:00", "meta": {"OBJECT_NAME": "GALAXY 17 (G-17)", "OBJECT_ID": "2007-016B", "EPOCH": "2025-12-20T21:23:12.657408", "MEAN_MOTION": 1.00270194, "ECCENTRICITY": 0.00053389, "INCLINATION": 2.5191, "RA_OF_ASC_NODE": 82.196, "ARG_OF_PERICENTER": 169.6137, "MEAN_ANOMALY": 73.7388, "EPHEMERIS_TYPE": 0, "CLASSIFICATION_TYPE": "U", "NORAD_CAT_ID": 31307, "ELEMENT_SET_NO": 999, "REV_AT_EPOCH": 6801, "BSTAR": 0, "MEAN_MOTION_DOT": -1.85e-06, "MEAN_MOTION_DDOT": 0}, "tle": {"line1": "1 31307U 07016B   25354.89111872 -.00000185  00000+0  00000+0 0  9997", "line2": "2 31307   2.5191  82.1960 0005338 169.6137  73.7388  1.00270194 68017"}}, "geometry": {"type": "Point", "coordinates": [118.72706991789433, 1.5255825300093804]}}, {"type": "Feature", "properties": {"norad_id": 31862, "name": "DIRECTV 10", "group": "intelsat", "lat": -0.0017221435438470585, "lon": 100.96194415311867, "alt_km": 35786.476213505586, "timestamp": "2025-12-21T07:34:34.207767+00:00", "meta": {"OBJECT_NAME": "DIRECTV 10", "OBJECT_ID": "2007-032A", "EPOCH": "2025-12-20T21:18:05.647104", "MEAN_MOTION": 1.00270377, "ECCENTRICITY": 2.729e-05, "INCLINATION": 0.0073, "RA_OF_ASC_NODE": 111.6707, "ARG_OF_PERICENTER": 78.7977, "MEAN_ANOMALY": 115.9664, "EPHEMERIS_TYPE": 0, "CLASSIFICATION_TYPE": "U", "NORAD_CAT_ID": 31862, "ELEMENT_SET_NO": 999, "REV_AT_EPOCH": 4380, "BSTAR": 0, "MEAN_MOTION_DOT": -8e-07, "MEAN_MOTION_DDOT": 0}, "tle": {"line1": "1 31862U 07032A   25354.88756536 -.00000080  00000+0  00000+0 0  9996", "line2": "2 31862   0.0073 111.6707 0000272  78.7977 115.9664  1.00270377 43805"}}, "geometry": {"type": "Point", "coordinates": [100.96194415311867, -0.0017221435438470585]}}, {"type": "Feature", "properties": {"norad_id": 32253, "name": "INTELSAT 11 (IS-11)", "group": "intelsat", "lat": -2.3311476162017, "lon": 31.850013029713256, "alt_km": 36160.2636139972, "timestamp": "2025-12-21T07:34:34.207777+00:00", "meta": {"OBJECT_NAME": "INTELSAT 11 (IS-11)", "OBJECT_ID": "2007-044B", "EPOCH": "2025-12-20T19:16:17.312160", "MEAN_MOTION": 0.99052323, "ECCENTRICITY": 0.00085352, "INCLINATION": 3.0999, "RA_OF_ASC_NODE": 80.8877, "ARG_OF_PERICENTER": 169.061, "MEAN_ANOMALY": 318.9785, "EPHEMERIS_TYPE": 0, "CLASSIFICATION_TYPE": "U", "NORAD_CAT_ID": 32253, "ELEMENT_SET_NO": 999, "REV_AT_EPOCH": 6668, "BSTAR": 0, "MEAN_MOTION_DOT": -7e-07, "MEAN_MOTION_DDOT": 0}, "tle": {"line1": "1 32253U 07044B   25354.80297815 -.00000070  00000+0  00000+0 0  9995", "line2": "2 32253   3.0999  80.8877 0008535 169.0610 318.9785  0.99052323 66689"}}, "geometry": {"type": "Point", "coordinates": [31.850013029713256, -2.3311476162017]}}, {"type": "Feature", "properties": {"norad_id": 32388, "name": "HORIZONS-2", "group": "intelsat", "lat": 1.5910937934334908, "lon": 129.9412026528223, "alt_km": 35802.32084115013, "timestamp": "2025-12-21T07:34:34.207787+00:00", "meta": {"OBJECT_NAME": "HORIZONS-2", "OBJECT_ID": "2007-063B", "EPOCH": "2025-12-20T21:26:19.857696", "MEAN_MOTION": 1.00271536, "ECCENTRICITY": 0.00045896, "INCLINATION": 2.1416, "RA_OF_ASC_NODE": 82.8744, "ARG_OF_PERICENTER": 194.2887, "MEAN_ANOMALY": 60.3571, "EPHEMERIS_TYPE": 0, "CLASSIFICATION_TYPE": "U", "NORAD_CAT_ID": 32388, "ELEMENT_SET_NO": 999, "REV_AT_EPOCH": 6602, "BSTAR": 0, "MEAN_MOTION_DOT": -2.32e-06, "MEAN_MOTION_DDOT": 0}, "tle": {"line1": "1 32388U 07063B   25354.89328539 -.00000232  00000+0  00000+0 0  9992", "line2": "2 32388   2.1416  82.8744 0004589 194.2887  60.3571  1.00271536 66029"}}, "geometry": {"type": "Point", "coordinates": [129.9412026528223, 1.5910937934334908]}}, {"type": "Feature", "properties": {"norad_id": 32729, "name": "DIRECTV 11", "group": "intelsat", "lat": 0.012549458524733591, "lon": 104.58044844979388, "alt_km": 35782.581358819, "timestamp": "2025-12-21T07:34:34.207798+00:00", "meta": {"OBJECT_NAME": "DIRECTV 11", "OBJECT_ID": "2008-013A", "EPOCH": "2025-12-20T21:19:05.550816", "MEAN_MOTION": 1.00274637, "ECCENTRICITY": 8.088e-05, "INCLINATION": 0.0493, "RA_OF_ASC_NODE": 192.0747, "ARG_OF_PERICENTER": 309.9417, "MEAN_ANOMALY": 168.2831, "EPHEMERIS_TYPE": 0, "CLASSIFICATION_TYPE": "U", "NORAD_CAT_ID": 32729, "ELEMENT_SET_NO": 999, "REV_AT_EPOCH": 4380, "BSTAR": 0, "MEAN_MOTION_DOT": -1.03e-06, "MEAN_MOTION_DDOT": 0}, "tle": {"line1": "1 32729U 08013A   25354.88825869 -.00000103  00000+0  00000+0 0  9991", "line2": "2 32729   0.0493 192.0747 0000808 309.9417 168.2831  1.00274637 43804"}}, "geometry": {"type": "Point", "coordinates": [104.58044844979388, 0.012549458524733591]}}, {"type": "Feature", "properties": {"norad_id": 32951, "name": "GALAXY 18 (G-18)", "group": "intelsat", "lat": 0.024584462105881586, "lon": 80.76747279371838, "alt_km": 35797.87515303175, "timestamp": "2025-12-21T07:34:34.207809+00:00", "meta": {"OBJECT_NAME": "GALAXY 18 (G-18)", "OBJECT_ID": "2008-024A", "EPOCH": "2025-12-20T17:46:55.869888", "MEAN_MOTION": 1.00271082, "ECCENTRICITY": 0.00028289, "INCLINATION": 0.016, "RA_OF_ASC_NODE": 56.7149, "ARG_OF_PERICENTER": 218.0405, "MEAN_ANOMALY": 318.5378, "EPHEMERIS_TYPE": 0, "CLASSIFICATION_TYPE": "U", "NORAD_CAT_ID": 32951, "ELEMENT_SET_NO": 999, "REV_AT_EPOCH": 4406, "BSTAR": 0, "MEAN_MOTION_DOT": 4.9e-07, "MEAN_MOTION_DDOT": 0}, "tle": {"line1": "1 32951U 08024A   25354.74092442  .00000049  00000+0  00000+0 0  9996", "line2": "2 32951   0.0160  56.7149 0002828 218.0405 318.5378  1.00271082 44061"}}, "geometry": {"type": "Point", "coordinates": [80.76747279371838, 0.024584462105881586]}}]}